{"type": "FeatureCollection", "features": [ {"type": "Feature", "properties": {"norad_id": 57401, "name": "TIANMU-1 09", "group": "weather", "lat": 23.527925989023924, "lon": -143.11412937328615, "alt_km": 479.4449731692157, "timestamp": "2025-12-10T11:33:53.034510+00:00", "meta": {"OBJECT_NAME": "TIANMU-1 09", "OBJECT_ID": "2023-101C", "EPOCH": "2025-12-10T04:35:50.983584", "MEAN_MOTION": 15.28022151, "ECCENTRICITY": 0.000683, "INCLINATION": 97.2822, "RA_OF_ASC_NODE": 33.4105, "ARG_OF_PERICENTER": 90.6844, "MEAN_ANOMALY": 269.5178, "EPHEMERIS_TYPE": 0, "CLASSIFICATION_TYPE": "U", "NORAD_CAT_ID": 57401, "ELEMENT_SET_NO": 999, "REV_AT_EPOCH": 13276, "BSTAR": 0.00036362, "MEAN_MOTION_DOT": 9.876e-05, "MEAN_MOTION_DDOT": 0}, "tle": {"line1": "1 57401U 23101C   25344.19156231  .00009876  00000+0  36362-3 0  9992", "line2": "2 57401  97.2822  33.4105 0006830  90.6844 269.5178 15.28022151132767"}}, "geometry": {"type": "Point", "coordinates": [-143.11412937328615, 23.527925989023924]}}, {"type": "Feature", "properties": {"norad_id": 57402, "name": "TIANMU-1 10", "group": "weather", "lat": -31.82038131187266, "lon": 39.09786997015865, "alt_km": 490.98136408924984, "timestamp": "2025-12-10T11:33:53.034520+00:00", "meta": {"OBJECT_NAME": "TIANMU-1 10", "OBJECT_ID": "2023-101D", "EPOCH": "2025-12-10T03:50:47.936256", "MEAN_MOTION": 15.28012268, "ECCENTRICITY": 0.0008565, "INCLINATION": 97.2902, "RA_OF_ASC_NODE": 34.227, "ARG_OF_PERICENTER": 90.8747, "MEAN_ANOMALY": 269.3474, "EPHEMERIS_TYPE": 0, "CLASSIFICATION_TYPE": "U", "NORAD_CAT_ID": 57402, "ELEMENT_SET_NO": 999, "REV_AT_EPOCH": 13275, "BSTAR": 0.00038806, "MEAN_MOTION_DOT": 0.00010547, "MEAN_MOTION_DDOT": 0}, "tle": {"line1": "1 57402U 23101D   25344.16027704  .00010547  00000+0  38806-3 0  9994", "line2": "2 57402  97.2902  34.2270 0008565  90.8747 269.3474 15.28012268132754"}}, "geometry": {"type": "Point", "coordinates": [39.09786997015865, -31.82038131187266]}}, {"type": "Feature", "properties": {"norad_id": 57490, "name": "FENGYUN 3F", "group": "weather", "lat": 24.95604562595845, "lon": 48.72127295905389, "alt_km": 824.7771880173204, "timestamp": "2025-12-10T11:33:53.034532+00:00", "meta": {"OBJECT_NAME": "FENGYUN 3F", "OBJECT_ID": "2023-111A", "EPOCH": "2025-12-10T04:40:52.383072", "MEAN_MOTION": 14.19892534, "ECCENTRICITY": 6.48e-05, "INCLINATION": 98.7087, "RA_OF_ASC_NODE": 52.5295, "ARG_OF_PERICENTER": 97.0114, "MEAN_ANOMALY": 263.1136, "EPHEMERIS_TYPE": 0, "CLASSIFICATION_TYPE": "U", "NORAD_CAT_ID": 57490, "ELEMENT_SET_NO": 999, "REV_AT_EPOCH": 12204, "BSTAR": 8.6087e-05, "MEAN_MOTION_DOT": 1.39e-06, "MEAN_MOTION_DDOT": 0}, "tle": {"line1": "1 57490U 23111A   25344.19505073  .00000139  00000+0  86087-4 0  9996", "line2": "2 57490  98.7087  52.5295 0000648  97.0114 263.1136 14.19892534122041"}}, "geometry": {"type": "Point", "coordinates": [48.72127295905389, 24.95604562595845]}}, {"type": "Feature", "properties": {"norad_id": 58584, "name": "ARKTIKA-M 2", "group": "weather", "lat": 58.67892184326038, "lon": -128.76706807326724, "alt_km": 35310.4120992041, "timestamp": "2025-12-10T11:33:53.034546+00:00", "meta": {"OBJECT_NAME": "ARKTIKA-M 2", "OBJECT_ID": "2023-198A", "EPOCH": "2025-12-08T20:10:13.977120", "MEAN_MOTION": 2.0060476, "ECCENTRICITY": 0.68646991, "INCLINATION": 63.2247, "RA_OF_ASC_NODE": 175.3152, "ARG_OF_PERICENTER": 268.1185, "MEAN_ANOMALY": 18.8267, "EPHEMERIS_TYPE": 0, "CLASSIFICATION_TYPE": "U", "NORAD_CAT_ID": 58584, "ELEMENT_SET_NO": 999, "REV_AT_EPOCH": 1450, "BSTAR": 0, "MEAN_MOTION_DOT": 1.66e-06, "MEAN_MOTION_DDOT": 0}, "tle": {"line1": "1 58584U 23198A   25342.84043955  .00000166  00000+0  00000+0 0  9998", "line2": "2 58584  63.2247 175.3152 6864699 268.1185  18.8267  2.00604760 14506"}}, "geometry": {"type": "Point", "coordinates": [-128.76706807326724, 58.67892184326038]}}, {"type": "Feature", "properties": {"norad_id": 58645, "name": "TIANMU-1 11", "group": "weather", "lat": 4.527115784313736, "lon": -175.26897393777807, "alt_km": 499.1554880266849, "timestamp": "2025-12-10T11:33:53.034560+00:00", "meta": {"OBJECT_NAME": "TIANMU-1 11", "OBJECT_ID": "2023-205A", "EPOCH": "2025-12-10T04:29:48.064704", "MEAN_MOTION": 15.24548668, "ECCENTRICITY": 0.0008119, "INCLINATION": 97.361, "RA_OF_ASC_NODE": 3.8552, "ARG_OF_PERICENTER": 320.8768, "MEAN_ANOMALY": 39.1881, "EPHEMERIS_TYPE": 0, "CLASSIFICATION_TYPE": "U", "NORAD_CAT_ID": 58645, "ELEMENT_SET_NO": 999, "REV_AT_EPOCH": 10870, "BSTAR": 0.00034509, "MEAN_MOTION_DOT": 8.435e-05, "MEAN_MOTION_DDOT": 0}, "tle": {"line1": "1 58645U 23205A   25344.18736186  .00008435  00000+0  34509-3 0  9991", "line2": "2 58645  97.3610   3.8552 0008119 320.8768  39.1881 15.24548668108707"}}, "geometry": {"type": "Point", "coordinates": [-175.26897393777807, 4.527115784313736]}}, {"type": "Feature", "properties": {"norad_id": 58646, "name": "TIANMU-1 12", "group": "weather", "lat": 28.243217007869227, "lon": -0.030419211982895, "alt_km": 491.08804322215656, "timestamp": "2025-12-10T11:33:53.034570+00:00", "meta": {"OBJECT_NAME": "TIANMU-1 12", "OBJECT_ID": "2023-205B", "EPOCH": "2025-12-10T03:33:47.916000", "MEAN_MOTION": 15.24428363, "ECCENTRICITY": 0.0006025, "INCLINATION": 97.3597, "RA_OF_ASC_NODE": 3.6234, "ARG_OF_PERICENTER": 303.0376, "MEAN_ANOMALY": 57.0283, "EPHEMERIS_TYPE": 0, "CLASSIFICATION_TYPE": "U", "NORAD_CAT_ID": 58646, "ELEMENT_SET_NO": 999, "REV_AT_EPOCH": 10868, "BSTAR": 0.00036641, "MEAN_MOTION_DOT": 8.925e-05, "MEAN_MOTION_DDOT": 0}, "tle": {"line1": "1 58646U 23205B   25344.14847125  .00008925  00000+0  36641-3 0  9997", "line2": "2 58646  97.3597   3.6234 0006025 303.0376  57.0283 15.24428363108680"}}, "geometry": {"type": "Point", "coordinates": [-0.030419211982895, 28.243217007869227]}}, {"type": "Feature", "properties": {"norad_id": 58647, "name": "TIANMU-1 13", "group": "weather", "lat": -24.02158092663136, "lon": -179.15288822975725, "alt_km": 496.8101545738509, "timestamp": "2025-12-10T11:33:53.034627+00:00", "meta": {"OBJECT_NAME": "TIANMU-1 13", "OBJECT_ID": "2023-205C", "EPOCH": "2025-12-10T04:22:12.696096", "MEAN_MOTION": 15.24472468, "ECCENTRICITY": 0.0006049, "INCLINATION": 97.3625, "RA_OF_ASC_NODE": 3.8562, "ARG_OF_PERICENTER": 279.0368, "MEAN_ANOMALY": 81.0185, "EPHEMERIS_TYPE": 0, "CLASSIFICATION_TYPE": "U", "NORAD_CAT_ID": 58647, "ELEMENT_SET_NO": 999, "REV_AT_EPOCH": 10868, "BSTAR": 0.00035097, "MEAN_MOTION_DOT": 8.557e-05, "MEAN_MOTION_DDOT": 0}, "tle": {"line1": "1 58647U 23205C   25344.18209139  .00008557  00000+0  35097-3 0  9994", "line2": "2 58647  97.3625   3.8562 0006049 279.0368  81.0185 15.24472468108681"}}, "geometry": {"type": "Point", "coordinates": [-179.15288822975725, -24.02158092663136]}}, {"type": "Feature", "properties": {"norad_id": 58648, "name": "TIANMU-1 14", "group": "weather", "lat": -63.701914489049436, "lon": 18.654810885933486, "alt_km": 495.0042869776016, "timestamp": "2025-12-10T11:33:53.034638+00:00", "meta": {"OBJECT_NAME": "TIANMU-1 14", "OBJECT_ID": "2023-205D", "EPOCH": "2025-12-10T03:58:15.946176", "MEAN_MOTION": 15.24455507, "ECCENTRICITY": 0.0006902, "INCLINATION": 97.3557, "RA_OF_ASC_NODE": 3.191, "ARG_OF_PERICENTER": 284.2734, "MEAN_ANOMALY": 75.7737, "EPHEMERIS_TYPE": 0, "CLASSIFICATION_TYPE": "U", "NORAD_CAT_ID": 58648, "ELEMENT_SET_NO": 999, "REV_AT_EPOCH": 10868, "BSTAR": 0.0003477, "MEAN_MOTION_DOT": 8.473e-05, "MEAN_MOTION_DDOT": 0}, "tle": {"line1": "1 58648U 23205D   25344.16546234  .00008473  00000+0  34770-3 0  9997", "line2": "2 58648  97.3557   3.1910 0006902 284.2734  75.7737 15.24455507108687"}}, "geometry": {"type": "Point", "coordinates": [18.654810885933486, -63.701914489049436]}}, {"type": "Feature", "properties": {"norad_id": 58660, "name": "TIANMU-1 19", "group": "weather", "lat": 16.571512468164393, "lon": -82.24837131563807, "alt_km": 483.64541369755625, "timestamp": "2025-12-10T11:33:53.034648+00:00", "meta": {"OBJECT_NAME": "TIANMU-1 19", "OBJECT_ID": "2023-208A", "EPOCH": "2025-12-10T04:33:53.025120", "MEAN_MOTION": 15.27774046, "ECCENTRICITY": 0.000405, "INCLINATION": 97.4388, "RA_OF_ASC_NODE": 95.2324, "ARG_OF_PERICENTER": 264.4903, "MEAN_ANOMALY": 95.5874, "EPHEMERIS_TYPE": 0, "CLASSIFICATION_TYPE": "U", "NORAD_CAT_ID": 58660, "ELEMENT_SET_NO": 999, "REV_AT_EPOCH": 10843, "BSTAR": 0.00050995, "MEAN_MOTION_DOT": 0.00013774, "MEAN_MOTION_DDOT": 0}, "tle": {"line1": "1 58660U 23208A   25344.19019705  .00013774  00000+0  50995-3 0  9992", "line2": "2 58660  97.4388  95.2324 0004050 264.4903  95.5874 15.27774046108435"}}, "geometry": {"type": "Point", "coordinates": [-82.24837131563807, 16.571512468164393]}}, {"type": "Feature", "properties": {"norad_id": 58661, "name": "TIANMU-1 20", "group": "weather", "lat": -47.29664956446948, "lon": -92.16330421596335, "alt_km": 482.8571742754448, "timestamp": "2025-12-10T11:33:53.034658+00:00", "meta": {"OBJECT_NAME": "TIANMU-1 20", "OBJECT_ID": "2023-208B", "EPOCH": "2025-12-10T05:51:32.469984", "MEAN_MOTION": 15.28966974, "ECCENTRICITY": 0.0006294, "INCLINATION": 97.4326, "RA_OF_ASC_NODE": 95.7314, "ARG_OF_PERICENTER": 276.5354, "MEAN_ANOMALY": 83.5169, "EPHEMERIS_TYPE": 0, "CLASSIFICATION_TYPE": "U", "NORAD_CAT_ID": 58661, "ELEMENT_SET_NO": 999, "REV_AT_EPOCH": 10851, "BSTAR": 0.0004742, "MEAN_MOTION_DOT": 0.00013282, "MEAN_MOTION_DDOT": 0}, "tle": {"line1": "1 58661U 23208B   25344.24412581  .00013282  00000+0  47420-3 0  9991", "line2": "2 58661  97.4326  95.7314 0006294 276.5354  83.5169 15.28966974108515"}}, "geometry": {"type": "Point", "coordinates": [-92.16330421596335, -47.29664956446948]}}]}